SARSAT 7 (NOAA 15)      
1 25338U 98030A   22040.58724497  .00000110  00000+0  64590-4 0  9994
2 25338  98.6600  71.6998 0009544 314.1148  45.9246 14.26088730235049
METEOSAT-8 (MSG-1)      
1 27509U 02040B   22040.20519535  .00000135  00000+0  00000+0 0  9994
2 27509   7.8017  51.3323 0000648   3.9210 199.3700  1.00278185 71311
GPS BIIR-08             
1 27663U 03005A   22039.36914949 -.00000008  00000+0  00000+0 0  9990
2 27663  55.6005 278.1860 0125693  39.6355 127.7169  2.00572280139424
GPS BIIR-11             
1 28190U 04009A   22039.68866119 -.00000102  00000+0  00000+0 0  9996
2 28190  56.0764 339.1205 0087455 115.4176  82.0031  2.00563004131062
GPS BIIR-13             
1 28474U 04045A   22039.76008936 -.00000077  00000+0  00000+0 0  9996
2 28474  55.3047  28.6093 0208693 277.0277 239.8966  2.00562209126557
SARSAT 10 (NOAA 18)     
1 28654U 05018A   22040.57935129  .00000141  00000+0  10045-3 0  9996
2 28654  98.9651 111.0437 0013680 336.1737  23.8800 14.12686329862010
GPS BIIR-14M            
1 28874U 05038A   22039.51241986 -.00000101  00000+0  00000+0 0  9998
2 28874  56.1480 336.5555 0138834 273.8822 177.3992  2.00554710119953
METEOSAT-9 (MSG-2)      
1 28912U 05049B   22033.19566535  .00000018  00000+0  00000+0 0  9997
2 28912   5.7146  67.1393 0003074  40.5062  98.6875  1.00355766 59030
GOES 13                 
1 29155U 06018A   22040.56811042  .00000040  00000+0  00000+0 0  9994
2 29155   0.4646  98.8989 0004494 159.0464 147.8073  1.00269371 57589
GPS BIIR-16M            
1 29601U 06052A   22038.94883122 -.00000009  00000+0  00000+0 0  9991
2 29601  55.6037 277.1357 0084408  70.8247 290.1453  2.00571562111511
GPS BIIR-17M            
1 32260U 07047A   22039.75419992 -.00000022  00000+0  00000+0 0  9996
2 32260  53.2808 145.8774 0137396  61.1651 300.2033  2.00555684104939
GPS BIIR-18M            
1 32384U 07062A   22039.29460010 -.00000101  00000+0  00000+0 0  9994
2 32384  56.2632 337.3087 0016385 134.7861  24.3081  2.00554675103624
SARSAT 12 (NOAA 19)     
1 33591U 09005A   22040.56632247  .00000097  00000+0  77430-4 0  9998
2 33591  99.1647  71.9171 0013897 183.5777 176.5297 14.12528529670392
GOES 14                 
1 35491U 09033A   22040.62607833 -.00000089  00000+0  00000+0 0  9996
2 35491   0.0271  21.7501 0013650 206.8880  31.9359  1.00271713 46223
GOES 15                 
1 36411U 10008A   22040.60556012  .00000057  00000+0  00000+0 0  9997
2 36411   0.0402 263.2855 0001381 103.0534 223.1559  1.00278313 43732
GPS BIIF-2              
1 37753U 11036A   22039.43028917 -.00000071  00000+0  00000+0 0  9993
2 37753  56.5469  33.7283 0111867  49.6667 353.9376  2.00564691 77395
GSAT0101 (GALILEO-PFM)  
1 37846U 11060A   22039.20239950 -.00000077  00000+0  00000+0 0  9995
2 37846  56.9486  24.8502 0003727 334.1790  25.8037  1.70475177 64010
GSAT0102 (GALILEO-FM2)  
1 37847U 11060B   22037.64854184 -.00000080  00000+0  00000+0 0  9998
2 37847  56.9488  24.8920 0005333 316.0802 216.7740  1.70475413 63996
LUCH 5A                 
1 37951U 11074B   22039.87141126 -.00000048  00000+0  00000+0 0  9995
2 37951   4.6961 100.2433 0002666 238.7817 280.5230  1.00273728 37259
METEOSAT-10 (MSG-3)     
1 38552U 12035B   22040.27060902  .00000064  00000+0  00000+0 0  9996
2 38552   1.3575  32.4703 0001635 230.9599 342.8523  1.00264413 35283
SARSAT 13 (METOP-B)     
1 38771U 12049A   22040.60960414  .00000050  00000+0  42932-4 0  9998
2 38771  98.6837 102.2957 0001918  75.0012  84.6848 14.21494956487562
GPS BIIF-3              
1 38833U 12053A   22038.85504259  .00000071  00000+0  00000+0 0  9995
2 38833  53.5441 208.6585 0121750  45.4427 315.5269  2.00560405 67540
GSAT0103 (GALILEO-FM3)  
1 38857U 12055A   22039.24272184 -.00000016  00000+0  00000+0 0  9996
2 38857  55.1020 145.2521 0003281 247.6609 112.2975  1.70473649 57903
GSAT0104 (GALILEO-FM4)  
1 38858U 12055B   22039.79962984 -.00000018  00000+0  00000+0 0  9993
2 38858  55.1024 145.2383 0001303 209.6225 150.3625  1.70473918 58027
GPS BIIF-4              
1 39166U 13023A   22039.21395871 -.00000100  00000+0  00000+0 0  9996
2 39166  55.7806 332.9908 0100555  35.4779 325.1979  2.00566744 63990
INSAT-3D                
1 39216U 13038B   22039.63937755 -.00000154  00000+0  00000+0 0  9996
2 39216   0.0102 134.4453 0000826 195.5178 120.9944  1.00269487 31158
GPS BIIF-5              
1 39533U 14008A   22038.71081132  .00000072  00000+0  00000+0 0  9991
2 39533  53.6411 214.1569 0055814 204.7338 154.9870  2.00573770 57785
LUCH 5V                 
1 39727U 14023A   22039.87132611 -.00000266  00000+0  00000+0 0  9996
2 39727   1.2020  72.5527 0002475 288.1001 186.6477  1.00269030 28427
GPS BIIF-6              
1 39741U 14026A   22039.48951657 -.00000071  00000+0  00000+0 0  9995
2 39741  56.5114  33.2522 0028707 301.9478  57.7891  2.00565175 56651
GPS BIIF-7              
1 40105U 14045A   22039.58200558 -.00000010  00000+0  00000+0 0  9993
2 40105  54.6653 151.9501 0020549 109.0223 251.1910  2.00568982 54198
GSAT0201 (GALILEO 5)    
1 40128U 14050A   22039.92734894 -.00000123  00000+0  00000+0 0  9992
2 40128  50.3604 337.4046 1631205 119.4918 257.7646  1.85519366 50773
GSAT0202 (GALILEO 6)    
1 40129U 14050B   22039.11082925 -.00000124  00000+0  00000+0 0  9996
2 40129  50.3876 336.4940 1628423 120.2673 256.8508  1.85520041 50985
GPS BIIF-8              
1 40294U 14068A   22039.45584546 -.00000055  00000+0  00000+0 0  9994
2 40294  55.7175  93.0333 0036827  53.0480 307.3501  2.00562575 53322
GLONASS-K 2             
1 40315U 14075A   22040.41222306  .00000085  00000+0  00000+0 0  9999
2 40315  63.7157 245.6571 0016117 206.2593 171.7598  2.13101332 56002
GPS BIIF-9              
1 40534U 15013A   22038.59056780  .00000000  00000+0  00000+0 0  9999
2 40534  53.7868 270.0744 0067716  19.0296 341.2783  2.00560561 49920
GSAT0203 (GALILEO 7)    
1 40544U 15017A   22038.98363654 -.00000078  00000+0  00000+0 0  9994
2 40544  56.7436  24.9069 0004942 272.9464  86.9982  1.70475909 42092
GSAT0204 (GALILEO 8)    
1 40545U 15017B   22039.23622034 -.00000077  00000+0  00000+0 0  9993
2 40545  56.7496  24.9119 0004289 263.0769  96.8758  1.70475690  5141
GPS BIIF-10             
1 40730U 15033A   22039.25183067 -.00000100  00000+0  00000+0 0  9994
2 40730  55.2824 331.8796 0072326   3.9150 356.1546  2.00558867 48101
METEOSAT-11 (MSG-4)     
1 40732U 15034A   22040.34047082 -.00000001  00000+0  00000+0 0  9995
2 40732   0.2117 338.4826 0001365  93.2938 190.0370  1.00277127 24083
GSAT0205 (GALILEO 9)    
1 40889U 15045A   22039.00354636  .00000025  00000+0  00000+0 0  9992
2 40889  55.7089 265.5381 0006332  22.5531 337.5323  1.70475045 39907
GSAT0206 (GALILEO 10)   
1 40890U 15045B   22039.81068134  .00000031  00000+0  00000+0 0  9995
2 40890  55.7074 265.5116 0004538  18.7588 341.3171  1.70473364 39944
GPS BIIF-11             
1 41019U 15062A   22039.30133255 -.00000055  00000+0  00000+0 0  9996
2 41019  55.7076  92.8796 0076270 217.0112 142.5204  2.00563157 45943
ELEKTRO-L 2             
1 41105U 15074A   22039.90699628 -.00000115  00000+0  00000+0 0  9999
2 41105   2.6655  89.6569 0001255 150.7527 210.5718  1.00270453 22583
GSAT0209 (GALILEO 12)   
1 41174U 15079A   22038.81272004 -.00000015  00000+0  00000+0 0  9993
2 41174  55.1179 144.9665 0003021 309.1587  50.8086  1.70473695 37662
GSAT0208 (GALILEO 11)   
1 41175U 15079B   22038.44577781 -.00000014  00000+0  00000+0 0  9992
2 41175  55.1161 144.9753 0002200 308.8855  51.0892  1.70473702 38077
GPS BIIF-12             
1 41328U 16007A   22039.39818943 -.00000007  00000+0  00000+0 0  9999
2 41328  54.8864 152.5975 0057094 226.5345 132.9802  2.00551841 43953
GSAT0211 (GALILEO 14)   
1 41549U 16030A   22038.56535436  .00000023  00000+0  00000+0 0  9998
2 41549  55.8533 265.4653 0004639 353.7513   6.3002  1.70474771 35551
GSAT0210 (GALILEO 13)   
1 41550U 16030B   22038.85805493  .00000025  00000+0  00000+0 0  9997
2 41550  55.8525 265.4588 0002914 335.8801  24.1637  1.70474909 35551
INSAT-3DR               
1 41752U 16054A   22039.85286801 -.00000075  00000+0  00000+0 0  9990
2 41752   0.0546  99.1586 0012995 177.9699 242.7846  1.00273444 19882
GSAT0207 (GALILEO 15)   
1 41859U 16069A   22038.51857848 -.00000014  00000+0  00000+0 0  9994
2 41859  54.7775 145.1879 0003125 288.5776  71.3822  1.70473667 32282
GSAT0212 (GALILEO 16)   
1 41860U 16069B   22039.54516565 -.00000018  00000+0  00000+0 0  9992
2 41860  54.7752 145.1573 0001863 324.5356  35.4447  1.70473638 32554
GSAT0213 (GALILEO 17)   
1 41861U 16069C   22039.32405504 -.00000017  00000+0  00000+0 0  9998
2 41861  54.7775 145.1683 0003165 258.0821 101.8755  1.70473731 32416
GSAT0214 (GALILEO 18)   
1 41862U 16069D   22038.88457073 -.00000015  00000+0  00000+0 0  9995
2 41862  54.7759 145.1753 0002235 258.4440 101.5244  1.70473846 32535
GOES 16                 
1 41866U 16071A   22040.50284465 -.00000245  00000+0  00000+0 0  9992
2 41866   0.0900 270.6905 0001279  80.1812 254.5026  1.00276418 19175
GSAT-17                 
1 42815U 17040B   22039.71323162 -.00000256  00000+0  00000+0 0  9995
2 42815   0.0982 275.1474 0006095 354.5952 219.3135  1.00272872 16857
GSAT0215 (GALILEO 19)   
1 43055U 17079A   22038.78881856  .00000025  00000+0  00000+0 0  9992
2 43055  55.8285 265.2936 0002320 341.9501  18.0988  1.70474038 25875
GSAT0216 (GALILEO 20)   
1 43056U 17079B   22039.66772546  .00000031  00000+0  00000+0 0  9993
2 43056  55.8282 265.2691 0003506 316.2524  43.7785  1.70474194 25905
GSAT0217 (GALILEO 21)   
1 43057U 17079C   22039.88793280  .00000032  00000+0  00000+0 0  9997
2 43057  55.8255 265.2628 0003761 332.6618  27.3777  1.70474099 25896
GSAT0218 (GALILEO 22)   
1 43058U 17079D   22040.10793687  .00000034  00000+0  00000+0 0  9998
2 43058  55.8269 265.2542 0003668 307.8482  52.1785  1.70474172 25893
GOES 17                 
1 43226U 18022A   22040.54003625  .00000101  00000+0  00000+0 0  9993
2 43226   0.0624 268.5219 0000441  49.2782 238.9808  1.00272075 14507
